{
  "norad_id": 62984,
  "name": "STARLINK-11544 [DTC]",
  "history": [
    {
      "epoch": "2026-04-14T19:10:36.022656Z",
      "apogee_km": 357.5877468957797,
      "perigee_km": 355.2320023990278,
      "latitude_deg": 5.7205162854345845e-05,
      "longitude_deg": 12.989796170500416,
      "height_km": 356.01696502673053,
      "semi_major_axis_km": 6734.5468746474035,
      "eccentricity": 0.0001749,
      "inclination_deg": 43.0015,
      "raan_deg": 143.6101,
      "arg_perigee_deg": 278.0925,
      "mean_anomaly_deg": 81.9745,
      "mean_motion_rev_day": 15.70869805
    },
    {
      "epoch": "2026-04-15T02:48:23.802624Z",
      "apogee_km": 357.8575454870488,
      "perigee_km": 354.9449923765005,
      "latitude_deg": 3.905126418258834e-05,
      "longitude_deg": -103.68975630111616,
      "height_km": 356.06788780884614,
      "semi_major_axis_km": 6734.538268931774,
      "eccentricity": 0.00021624,
      "inclination_deg": 42.9989,
      "raan_deg": 141.693,
      "arg_perigee_deg": 274.1861,
      "mean_anomaly_deg": 85.876,
      "mean_motion_rev_day": 15.70872816
    },
    {
      "epoch": "2026-04-16T18:28:57.832320Z",
      "apogee_km": 357.0180259799772,
      "perigee_km": 355.8004200228588,
      "latitude_deg": 2.19306852951967e-05,
      "longitude_deg": 9.574697942699755,
      "height_km": 355.64110173049534,
      "semi_major_axis_km": 6734.546223001418,
      "eccentricity": 9.04e-05,
      "inclination_deg": 42.9996,
      "raan_deg": 131.7287,
      "arg_perigee_deg": 27.7347,
      "mean_anomaly_deg": 332.3569,
      "mean_motion_rev_day": 15.70870033
    },
    {
      "epoch": "2026-04-17T12:47:40.178688Z",
      "apogee_km": 357.1326186978731,
      "perigee_km": 355.7742518070836,
      "latitude_deg": -1.9334256578629204e-05,
      "longitude_deg": 89.5467744119545,
      "height_km": 356.44515139576373,
      "semi_major_axis_km": 6734.5904352524785,
      "eccentricity": 0.00010085,
      "inclination_deg": 42.9995,
      "raan_deg": 127.1293,
      "arg_perigee_deg": 251.123,
      "mean_anomaly_deg": 108.9528,
      "mean_motion_rev_day": 15.70854564
    },
    {
      "epoch": "2026-04-18T17:47:18.535200Z",
      "apogee_km": 356.8272371986304,
      "perigee_km": 355.76454368851773,
      "latitude_deg": -1.0127206527291842e-05,
      "longitude_deg": 6.16332519139483,
      "height_km": 355.6620228872188,
      "semi_major_axis_km": 6734.432890443573,
      "eccentricity": 7.89e-05,
      "inclination_deg": 42.9992,
      "raan_deg": 119.8464,
      "arg_perigee_deg": 40.4331,
      "mean_anomaly_deg": 319.6595,
      "mean_motion_rev_day": 15.70909687
    },
    {
      "epoch": "2026-04-19T10:34:26.664096Z",
      "apogee_km": 359.70752601861204,
      "perigee_km": 352.7836379107912,
      "latitude_deg": -4.3631742250609056e-05,
      "longitude_deg": 109.47405876868447,
      "height_km": 355.96331519531975,
      "semi_major_axis_km": 6734.382581964702,
      "eccentricity": 0.00051407,
      "inclination_deg": 43.0015,
      "raan_deg": 115.6304,
      "arg_perigee_deg": 270.9443,
      "mean_anomaly_deg": 89.0835,
      "mean_motion_rev_day": 15.7092729
    }
  ]
}